<?xml version="1.0" encoding="UTF-8"?>
<ndm xmlns:xsi="http://www.w3.org/2001/XMLSchema-instance" xsi:noNamespaceSchemaLocation="https://sanaregistry.org/r/ndmxml_unqualified/ndmxml-2.0.0-master-2.0.xsd">
<omm id="CCSDS_OMM_VERS" version="2.0">
<header><CREATION_DATE/><ORIGINATOR/></header><body><segment><metadata><OBJECT_NAME>ORBCOMM FM33</OBJECT_NAME><OBJECT_ID>1999-065D</OBJECT_ID><CENTER_NAME>EARTH</CENTER_NAME><REF_FRAME>TEME</REF_FRAME><TIME_SYSTEM>UTC</TIME_SYSTEM><MEAN_ELEMENT_THEORY>SGP4</MEAN_ELEMENT_THEORY></metadata><data><meanElements><EPOCH>2025-02-04T01:47:55.394880</EPOCH><MEAN_MOTION>14.39394241</MEAN_MOTION><ECCENTRICITY>.0008755</ECCENTRICITY><INCLINATION>45.0277</INCLINATION><RA_OF_ASC_NODE>271.5786</RA_OF_ASC_NODE><ARG_OF_PERICENTER>108.3485</ARG_OF_PERICENTER><MEAN_ANOMALY>251.8317</MEAN_ANOMALY></meanElements><tleParameters><EPHEMERIS_TYPE>0</EPHEMERIS_TYPE><CLASSIFICATION_TYPE>U</CLASSIFICATION_TYPE><NORAD_CAT_ID>25983</NORAD_CAT_ID><ELEMENT_SET_NO>999</ELEMENT_SET_NO><REV_AT_EPOCH>31695</REV_AT_EPOCH><BSTAR>.83889E-3</BSTAR><MEAN_MOTION_DOT>.2493E-4</MEAN_MOTION_DOT><MEAN_MOTION_DDOT>0</MEAN_MOTION_DDOT></tleParameters></data></segment></body></omm>
<omm id="CCSDS_OMM_VERS" version="2.0">
<header><CREATION_DATE/><ORIGINATOR/></header><body><segment><metadata><OBJECT_NAME>ORBCOMM FM36</OBJECT_NAME><OBJECT_ID>1999-065E</OBJECT_ID><CENTER_NAME>EARTH</CENTER_NAME><REF_FRAME>TEME</REF_FRAME><TIME_SYSTEM>UTC</TIME_SYSTEM><MEAN_ELEMENT_THEORY>SGP4</MEAN_ELEMENT_THEORY></metadata><data><meanElements><EPOCH>2025-02-03T14:04:01.540416</EPOCH><MEAN_MOTION>14.37501217</MEAN_MOTION><ECCENTRICITY>.0004952</ECCENTRICITY><INCLINATION>45.0401</INCLINATION><RA_OF_ASC_NODE>3.7683</RA_OF_ASC_NODE><ARG_OF_PERICENTER>336.8387</ARG_OF_PERICENTER><MEAN_ANOMALY>23.2238</MEAN_ANOMALY></meanElements><tleParameters><EPHEMERIS_TYPE>0</EPHEMERIS_TYPE><CLASSIFICATION_TYPE>U</CLASSIFICATION_TYPE><NORAD_CAT_ID>25984</NORAD_CAT_ID><ELEMENT_SET_NO>999</ELEMENT_SET_NO><REV_AT_EPOCH>31578</REV_AT_EPOCH><BSTAR>.11245E-2</BSTAR><MEAN_MOTION_DOT>.3258E-4</MEAN_MOTION_DOT><MEAN_MOTION_DDOT>0</MEAN_MOTION_DDOT></tleParameters></data></segment></body></omm>
<omm id="CCSDS_OMM_VERS" version="2.0">
<header><CREATION_DATE/><ORIGINATOR/></header><body><segment><metadata><OBJECT_NAME>ORBCOMM FM35</OBJECT_NAME><OBJECT_ID>1999-065F</OBJECT_ID><CENTER_NAME>EARTH</CENTER_NAME><REF_FRAME>TEME</REF_FRAME><TIME_SYSTEM>UTC</TIME_SYSTEM><MEAN_ELEMENT_THEORY>SGP4</MEAN_ELEMENT_THEORY></metadata><data><meanElements><EPOCH>2025-02-03T09:41:40.389216</EPOCH><MEAN_MOTION>14.36571444</MEAN_MOTION><ECCENTRICITY>.0002435</ECCENTRICITY><INCLINATION>45.0405</INCLINATION><RA_OF_ASC_NODE>8.6419</RA_OF_ASC_NODE><ARG_OF_PERICENTER>52.8099</ARG_OF_PERICENTER><MEAN_ANOMALY>307.2971</MEAN_ANOMALY></meanElements><tleParameters><EPHEMERIS_TYPE>0</EPHEMERIS_TYPE><CLASSIFICATION_TYPE>U</CLASSIFICATION_TYPE><NORAD_CAT_ID>25985</NORAD_CAT_ID><ELEMENT_SET_NO>999</ELEMENT_SET_NO><REV_AT_EPOCH>31554</REV_AT_EPOCH><BSTAR>.97695E-3</BSTAR><MEAN_MOTION_DOT>.2756E-4</MEAN_MOTION_DOT><MEAN_MOTION_DDOT>0</MEAN_MOTION_DDOT></tleParameters></data></segment></body></omm>
<omm id="CCSDS_OMM_VERS" version="2.0">
<header><CREATION_DATE/><ORIGINATOR/></header><body><segment><metadata><OBJECT_NAME>ORBCOMM FM34</OBJECT_NAME><OBJECT_ID>1999-065G</OBJECT_ID><CENTER_NAME>EARTH</CENTER_NAME><REF_FRAME>TEME</REF_FRAME><TIME_SYSTEM>UTC</TIME_SYSTEM><MEAN_ELEMENT_THEORY>SGP4</MEAN_ELEMENT_THEORY></metadata><data><meanElements><EPOCH>2025-02-03T10:37:54.567552</EPOCH><MEAN_MOTION>14.36616514</MEAN_MOTION><ECCENTRICITY>.0004396</ECCENTRICITY><INCLINATION>45.0399</INCLINATION><RA_OF_ASC_NODE>8.9708</RA_OF_ASC_NODE><ARG_OF_PERICENTER>5.8167</ARG_OF_PERICENTER><MEAN_ANOMALY>354.2732</MEAN_ANOMALY></meanElements><tleParameters><EPHEMERIS_TYPE>0</EPHEMERIS_TYPE><CLASSIFICATION_TYPE>U</CLASSIFICATION_TYPE><NORAD_CAT_ID>25986</NORAD_CAT_ID><ELEMENT_SET_NO>999</ELEMENT_SET_NO><REV_AT_EPOCH>31566</REV_AT_EPOCH><BSTAR>.89681E-3</BSTAR><MEAN_MOTION_DOT>.2521E-4</MEAN_MOTION_DOT><MEAN_MOTION_DDOT>0</MEAN_MOTION_DDOT></tleParameters></data></segment></body></omm>
<omm id="CCSDS_OMM_VERS" version="2.0">
<header><CREATION_DATE/><ORIGINATOR/></header><body><segment><metadata><OBJECT_NAME>ORBCOMM FM38</OBJECT_NAME><OBJECT_ID>2008-031A</OBJECT_ID><CENTER_NAME>EARTH</CENTER_NAME><REF_FRAME>TEME</REF_FRAME><TIME_SYSTEM>UTC</TIME_SYSTEM><MEAN_ELEMENT_THEORY>SGP4</MEAN_ELEMENT_THEORY></metadata><data><meanElements><EPOCH>2025-02-03T19:41:24.294048</EPOCH><MEAN_MOTION>14.80305385</MEAN_MOTION><ECCENTRICITY>.000607</ECCENTRICITY><INCLINATION>48.4384</INCLINATION><RA_OF_ASC_NODE>230.4055</RA_OF_ASC_NODE><ARG_OF_PERICENTER>188.0526</ARG_OF_PERICENTER><MEAN_ANOMALY>172.0293</MEAN_ANOMALY></meanElements><tleParameters><EPHEMERIS_TYPE>0</EPHEMERIS_TYPE><CLASSIFICATION_TYPE>U</CLASSIFICATION_TYPE><NORAD_CAT_ID>33060</NORAD_CAT_ID><ELEMENT_SET_NO>999</ELEMENT_SET_NO><REV_AT_EPOCH>89498</REV_AT_EPOCH><BSTAR>.56932E-3</BSTAR><MEAN_MOTION_DOT>.4175E-4</MEAN_MOTION_DOT><MEAN_MOTION_DDOT>0</MEAN_MOTION_DDOT></tleParameters></data></segment></body></omm>
<omm id="CCSDS_OMM_VERS" version="2.0">
<header><CREATION_DATE/><ORIGINATOR/></header><body><segment><metadata><OBJECT_NAME>ORBCOMM FM41</OBJECT_NAME><OBJECT_ID>2008-031B</OBJECT_ID><CENTER_NAME>EARTH</CENTER_NAME><REF_FRAME>TEME</REF_FRAME><TIME_SYSTEM>UTC</TIME_SYSTEM><MEAN_ELEMENT_THEORY>SGP4</MEAN_ELEMENT_THEORY></metadata><data><meanElements><EPOCH>2025-02-03T22:50:35.081952</EPOCH><MEAN_MOTION>14.79929909</MEAN_MOTION><ECCENTRICITY>.0005139</ECCENTRICITY><INCLINATION>48.4419</INCLINATION><RA_OF_ASC_NODE>237.1196</RA_OF_ASC_NODE><ARG_OF_PERICENTER>175.1520</ARG_OF_PERICENTER><MEAN_ANOMALY>338.7648</MEAN_ANOMALY></meanElements><tleParameters><EPHEMERIS_TYPE>0</EPHEMERIS_TYPE><CLASSIFICATION_TYPE>U</CLASSIFICATION_TYPE><NORAD_CAT_ID>33061</NORAD_CAT_ID><ELEMENT_SET_NO>999</ELEMENT_SET_NO><REV_AT_EPOCH>89449</REV_AT_EPOCH><BSTAR>.48649E-3</BSTAR><MEAN_MOTION_DOT>.3503E-4</MEAN_MOTION_DOT><MEAN_MOTION_DDOT>0</MEAN_MOTION_DDOT></tleParameters></data></segment></body></omm>
<omm id="CCSDS_OMM_VERS" version="2.0">
<header><CREATION_DATE/><ORIGINATOR/></header><body><segment><metadata><OBJECT_NAME>ORBCOMM FM29</OBJECT_NAME><OBJECT_ID>2008-031C</OBJECT_ID><CENTER_NAME>EARTH</CENTER_NAME><REF_FRAME>TEME</REF_FRAME><TIME_SYSTEM>UTC</TIME_SYSTEM><MEAN_ELEMENT_THEORY>SGP4</MEAN_ELEMENT_THEORY></metadata><data><meanElements><EPOCH>2025-02-03T18:57:45.302688</EPOCH><MEAN_MOTION>14.79977471</MEAN_MOTION><ECCENTRICITY>.0006856</ECCENTRICITY><INCLINATION>48.4372</INCLINATION><RA_OF_ASC_NODE>245.8366</RA_OF_ASC_NODE><ARG_OF_PERICENTER>171.7589</ARG_OF_PERICENTER><MEAN_ANOMALY>246.2535</MEAN_ANOMALY></meanElements><tleParameters><EPHEMERIS_TYPE>0</EPHEMERIS_TYPE><CLASSIFICATION_TYPE>U</CLASSIFICATION_TYPE><NORAD_CAT_ID>33062</NORAD_CAT_ID><ELEMENT_SET_NO>999</ELEMENT_SET_NO><REV_AT_EPOCH>89438</REV_AT_EPOCH><BSTAR>.55488E-3</BSTAR><MEAN_MOTION_DOT>.4031E-4</MEAN_MOTION_DOT><MEAN_MOTION_DDOT>0</MEAN_MOTION_DDOT></tleParameters></data></segment></body></omm>
<omm id="CCSDS_OMM_VERS" version="2.0">
<header><CREATION_DATE/><ORIGINATOR/></header><body><segment><metadata><OBJECT_NAME>ORBCOMM FM39</OBJECT_NAME><OBJECT_ID>2008-031D</OBJECT_ID><CENTER_NAME>EARTH</CENTER_NAME><REF_FRAME>TEME</REF_FRAME><TIME_SYSTEM>UTC</TIME_SYSTEM><MEAN_ELEMENT_THEORY>SGP4</MEAN_ELEMENT_THEORY></metadata><data><meanElements><EPOCH>2025-02-03T21:17:08.522880</EPOCH><MEAN_MOTION>14.78661399</MEAN_MOTION><ECCENTRICITY>.0007463</ECCENTRICITY><INCLINATION>48.4390</INCLINATION><RA_OF_ASC_NODE>268.2415</RA_OF_ASC_NODE><ARG_OF_PERICENTER>145.6448</ARG_OF_PERICENTER><MEAN_ANOMALY>214.4950</MEAN_ANOMALY></meanElements><tleParameters><EPHEMERIS_TYPE>0</EPHEMERIS_TYPE><CLASSIFICATION_TYPE>U</CLASSIFICATION_TYPE><NORAD_CAT_ID>33063</NORAD_CAT_ID><ELEMENT_SET_NO>999</ELEMENT_SET_NO><REV_AT_EPOCH>89406</REV_AT_EPOCH><BSTAR>.47879E-3</BSTAR><MEAN_MOTION_DOT>.3338E-4</MEAN_MOTION_DOT><MEAN_MOTION_DDOT>0</MEAN_MOTION_DDOT></tleParameters></data></segment></body></omm>

</ndm>
