ORBCOMM FM33            
1 25983U 99065D   25035.07494670  .00002493  00000+0  83889-3 0  9994
2 25983  45.0277 271.5786 0008755 108.3485 251.8317 14.39394241316955
ORBCOMM FM36            
1 25984U 99065E   25034.58612894  .00003258  00000+0  11245-2 0  9996
2 25984  45.0401   3.7683 0004952 336.8387  23.2238 14.37501217315784
ORBCOMM FM35            
1 25985U 99065F   25034.40393969  .00002756  00000+0  97695-3 0  9993
2 25985  45.0405   8.6419 0002435  52.8099 307.2971 14.36571444315540
ORBCOMM FM34            
1 25986U 99065G   25034.44299268  .00002521  00000+0  89681-3 0  9991
2 25986  45.0399   8.9708 0004396   5.8167 354.2732 14.36616514315667
ORBCOMM FM38            
1 33060U 08031A   25034.82042007  .00004175  00000+0  56932-3 0  9995
2 33060  48.4384 230.4055 0006070 188.0526 172.0293 14.80305385894986
ORBCOMM FM41            
1 33061U 08031B   25034.95179493  .00003503  00000+0  48649-3 0  9990
2 33061  48.4419 237.1196 0005139 175.1520 338.7648 14.79929909894495
ORBCOMM FM29            
1 33062U 08031C   25034.79010767  .00004031  00000+0  55488-3 0  9997
2 33062  48.4372 245.8366 0006856 171.7589 246.2535 14.79977471894386
ORBCOMM FM39            
1 33063U 08031D   25034.88690420  .00003338  00000+0  47879-3 0  9992
2 33063  48.4390 268.2415 0007463 145.6448 214.4950 14.78661399894061
